STARLINK-1817
1 16715C 20073AX  21326.14200569  .00004923  00000-0  32992-3 0  3266
2 16715  53.0548  83.1074 0001240  75.5226 219.8760 15.06387151    18
